[{"airport":"CYND","visibility":0,"wind":0,"precipitation":0,"freezing":0,"dangerous":0,"VMC_IMC":0,"date":"20-11-12","airport_name":"OTTAWA/GATINEAU, QC","latitude":45.52169166666667,"longitude":-75.56361111111111,"countryCode":"CAN","raw_metar":"CYND 121800Z VRB05KT 15SM FEW040 FEW160 SCT220 08/M02 A3013 RMK SC1AC1CI2 SC TR SLP206 20-11-12","datetime":"2020-11-12T18:00:00.000Z"}]